{"type":"FeatureCollection","name":"ee_city_paid_zones","features":[{"type":"Feature","id":"tallinn-vanalinn","properties":{"id":"tallinn-vanalinn","name":"Vanalinn","city":"tallinn","zone_code":"VANALINN","price_per_hour":6,"free_minutes":15,"operator":"Tallinna Linn","role":"paid_zone"},"geometry":{"type":"Polygon","coordinates":[[[24.75315,59.44353],[24.74681,59.44414],[24.74552,59.44377],[24.74448,59.44241],[24.73878,59.44009],[24.73617,59.43926],[24.73412,59.43812],[24.73279,59.43659],[24.73234,59.43612],[24.73267,59.43504],[24.73503,59.43221],[24.73889,59.431],[24.74333,59.43263],[24.74617,59.4328],[24.74682,59.43403],[24.74783,59.4346],[24.75272,59.43618],[24.75284,59.43733],[24.75354,59.43738],[24.75397,59.43798],[24.75424,59.43888],[24.75397,59.4413],[24.75308,59.44238],[24.75336,59.44337],[24.75315,59.44353]]]}},{"type":"Feature","id":"tallinn-sudalinn","properties":{"id":"tallinn-sudalinn","name":"Südalinn","city":"tallinn","zone_code":"SÜDALINN","price_per_hour":4.8,"free_minutes":15,"operator":"AS Ühisteenused","role":"paid_zone"},"geometry":{"type":"Polygon","coordinates":[[[24.74617,59.4328],[24.74847,59.43268],[24.75033,59.43142],[24.75584,59.43365],[24.7581,59.43372],[24.75763,59.43736],[24.75453,59.43725],[24.75354,59.43738],[24.75284,59.43733],[24.75265,59.43679],[24.75231,59.4365],[24.75272,59.43618],[24.74842,59.43487],[24.74682,59.43403],[24.74634,59.43353],[24.74619,59.43319],[24.74617,59.4328]]]}},{"type":"Feature","id":"tallinn-kesklinn","properties":{"id":"tallinn-kesklinn","name":"Kesklinn","city":"tallinn","zone_code":"KESKLINN","price_per_hour":1.5,"free_minutes":15,"operator":"Tallinna Linn","role":"paid_zone"},"geometry":{"type":"Polygon","coordinates":[[[24.75986,59.44921],[24.75421,59.44779],[24.75525,59.446],[24.75316,59.44353],[24.73617,59.43926],[24.73234,59.43612],[24.72329,59.43248],[24.72868,59.42444],[24.7907,59.42096],[24.7809,59.42626],[24.79029,59.43342],[24.80693,59.44041],[24.81248,59.44354],[24.81245,59.44616],[24.80606,59.45117],[24.7897,59.44346],[24.77739,59.44606],[24.77133,59.44358],[24.76786,59.44424],[24.76077,59.44198],[24.76733,59.44534],[24.76236,59.44548],[24.77472,59.44974],[24.76574,59.45163],[24.76355,59.44804],[24.75986,59.44921]]]}},{"type":"Feature","id":"tallinn-pirita","properties":{"id":"tallinn-pirita","name":"Pirita rand","city":"tallinn","zone_code":"PIRITA","price_per_hour":0.6,"free_minutes":0,"operator":"Tallinna Linn","role":"paid_zone"},"geometry":{"type":"Polygon","coordinates":[[[24.82163,59.46513],[24.82249,59.46622],[24.82329,59.46824],[24.82608,59.46929],[24.83023,59.47175],[24.83422,59.47636],[24.8375,59.48337],[24.8377,59.48678],[24.83598,59.48909],[24.83214,59.49035],[24.82964,59.49158],[24.8269,59.49074],[24.8245,59.4885],[24.822,59.482],[24.8195,59.474],[24.81688,59.46835],[24.82189,59.4666],[24.82163,59.46513]]]}},{"type":"Feature","id":"parnu-kesklinn","properties":{"id":"parnu-kesklinn","name":"Pärnu Kesklinn","city":"parnu","zone_code":"PKESK","price_per_hour":2,"free_minutes":15,"operator":"Pärnu Linn","role":"paid_zone"},"geometry":{"type":"Polygon","coordinates":[[[24.4912,58.3888],[24.4985,58.3896],[24.5088,58.3892],[24.5156,58.3874],[24.5164,58.3836],[24.5128,58.3798],[24.5055,58.3784],[24.4972,58.3786],[24.4918,58.3804],[24.4896,58.3838],[24.4912,58.3888]]]}},{"type":"Feature","id":"parnu-rand","properties":{"id":"parnu-rand","name":"Pärnu Rand","city":"parnu","zone_code":"PRAND","price_per_hour":2,"free_minutes":15,"operator":"Pärnu Linn","role":"paid_zone"},"geometry":{"type":"Polygon","coordinates":[[[24.4885,58.3786],[24.5058,58.3784],[24.5145,58.3768],[24.5182,58.3722],[24.5155,58.3678],[24.505,58.3664],[24.494,58.3668],[24.4872,58.3695],[24.4858,58.3738],[24.4885,58.3786]]]}}]}