{"type":"FeatureCollection","name":"parnu_districts","properties":{"source":"OpenStreetMap Pärnu quarter relations (Nominatim polygon_geojson)","crs":"EPSG:4326","simplifyToleranceM":5,"builtAt":"2026-10-02T14:32:29.001Z","note":"Official Pärnu city districts / asumid. Paid parking zones (kesklinn/rand) remain separate subzone overlays."},"features":[{"type":"Feature","id":"vana-parnu","properties":{"id":"vana-parnu","name_et":"Vana-Pärnu","role":"district","labelPoint":[24.4785,58.3788],"osm_relation":4574702,"source":"OpenStreetMap relation (Pärnu quarters)","lastVerified":"2026-10-02","area_m2":2318605,"valid":true},"geometry":{"type":"Polygon","coordinates":[[[24.4512342,58.3848669],[24.4515661,58.3850404],[24.4516076,58.384928],[24.4519881,58.3849477],[24.4521766,58.3848276],[24.4521877,58.3847549],[24.4517492,58.3846466],[24.4516264,58.384534],[24.451575,58.3843966],[24.4517871,58.3843287],[24.4516295,58.384249],[24.4516363,58.3841673],[24.4518835,58.3839813],[24.4525624,58.383982],[24.4527098,58.3838584],[24.4526046,58.3836595],[24.452748,58.3834621],[24.4531139,58.3833296],[24.4533213,58.3833661],[24.453488,58.383297],[24.4534792,58.3831997],[24.453684,58.3831715],[24.4538375,58.3830278],[24.4538959,58.3815255],[24.4539848,58.3815284],[24.4541019,58.3818679],[24.4542237,58.3817764],[24.4543997,58.3814368],[24.4548145,58.3814283],[24.4549124,58.3815054],[24.4548765,58.381634],[24.4546359,58.3817041],[24.4551032,58.3817656],[24.4554985,58.3820067],[24.4557466,58.3820678],[24.4558049,58.3821647],[24.4566584,58.3819005],[24.4568555,58.381919],[24.4568035,58.3820817],[24.4565674,58.3822282],[24.4566754,58.3824183],[24.4567428,58.3824142],[24.4567958,58.3822948],[24.4569412,58.3823803],[24.4574443,58.3823166],[24.4575906,58.3822024],[24.4576104,58.3821057],[24.4575255,58.3820332],[24.4575801,58.3820177],[24.4579401,58.3820305],[24.4580295,58.3821007],[24.4585159,58.3820118],[24.4584138,58.3818446],[24.4587191,58.3816233],[24.4589496,58.3816078],[24.4593367,58.3817474],[24.4594896,58.3817131],[24.4596486,58.381525],[24.4600347,58.381367],[24.4602103,58.3811197],[24.4602677,58.3806617],[24.4604009,58.3805475],[24.4610126,58.3803968],[24.4609901,58.3802587],[24.4613205,58.3803249],[24.4613761,58.3800197],[24.4616244,58.3799861],[24.4617264,58.3797349],[24.461571,58.379866],[24.4613419,58.3799123],[24.4615625,58.3796915],[24.4616889,58.3796707],[24.4617225,58.3795478],[24.4619308,58.3794661],[24.4622478,58.3794603],[24.4623197,58.3793674],[24.462733,58.3792472],[24.4630572,58.3792164],[24.4630357,58.3791262],[24.4632242,58.3791389],[24.463457,58.3790322],[24.4637059,58.3788903],[24.4637452,58.378796],[24.4644287,58.3785511],[24.4646344,58.3786552],[24.4646398,58.3785309],[24.4651631,58.3783545],[24.4651358,58.3782323],[24.4654652,58.3780818],[24.4656125,58.3778412],[24.465759,58.3778821],[24.4658757,58.3778191],[24.4659527,58.3775942],[24.4661268,58.3774186],[24.4665349,58.3773558],[24.4666759,58.3772372],[24.4669887,58.3771554],[24.4672216,58.3768444],[24.4679765,58.3765956],[24.4679243,58.3764818],[24.4679876,58.3763913],[24.4682566,58.3761768],[24.4682681,58.3760799],[24.468938,58.3756374],[24.4689434,58.3754556],[24.4692808,58.3753146],[24.4694185,58.3750769],[24.4699122,58.3746638],[24.4701664,58.3746714],[24.4703278,58.3745813],[24.4676541,58.3723552],[24.4614913,58.3685663],[24.4615857,58.3685168],[24.4679402,58.3724433],[24.4738275,58.3774362],[24.4758578,58.3769012],[24.4776927,58.3790286],[24.4802632,58.3832362],[24.4825774,58.385195],[24.4842619,58.3863515],[24.4856052,58.3870562],[24.4868652,58.3875351],[24.4845865,58.3885296],[24.4828523,58.3886339],[24.4803215,58.3884081],[24.4783073,58.388604],[24.4762981,58.3891716],[24.4748531,58.3896995],[24.4708743,58.3924726],[24.4697861,58.3928861],[24.4665412,58.3935852],[24.4653467,58.3940979],[24.4644576,58.394666],[24.4638418,58.3953092],[24.460805,58.3946694],[24.4582942,58.3925924],[24.4582023,58.3923423],[24.4578869,58.3922667],[24.456468,58.3910948],[24.461339,58.3905154],[24.4602794,58.3885643],[24.4587069,58.3883035],[24.4520932,58.3882572],[24.4521177,58.3857592],[24.451427,58.3852935],[24.4512342,58.3848669]]]}},{"type":"Feature","id":"ulejoe","properties":{"id":"ulejoe","name_et":"Ülejõe","role":"district","labelPoint":[24.5055,58.3965],"osm_relation":4574703,"source":"OpenStreetMap relation (Pärnu quarters)","lastVerified":"2026-10-02","area_m2":4469064,"valid":true},"geometry":{"type":"Polygon","coordinates":[[[24.4587313,58.4013531],[24.4588335,58.4007639],[24.4592908,58.4000567],[24.4603832,58.3992957],[24.4619636,58.3984805],[24.4627345,58.3977143],[24.4632589,58.3966912],[24.4636283,58.39564],[24.4638418,58.3953092],[24.4644576,58.394666],[24.4653467,58.3940979],[24.4665412,58.3935852],[24.4697861,58.3928861],[24.4708743,58.3924726],[24.4748531,58.3896995],[24.4762981,58.3891716],[24.4783073,58.388604],[24.4803215,58.3884081],[24.4828523,58.3886339],[24.4845865,58.3885296],[24.4868652,58.3875351],[24.5002276,58.3897848],[24.4991874,58.3917408],[24.5001789,58.3918538],[24.4992986,58.3921728],[24.4982981,58.3923873],[24.4987358,58.3928892],[24.5000763,58.3935519],[24.4998004,58.3948087],[24.499163,58.3966734],[24.4985797,58.3987252],[24.4976543,58.401131],[24.4982093,58.4064601],[24.498552,58.4063942],[24.49628,58.4083961],[24.4958849,58.4086746],[24.4948423,58.4089751],[24.4934759,58.409055],[24.4939539,58.4144123],[24.4877966,58.4163522],[24.487587,58.4163914],[24.4874211,58.4157313],[24.4856592,58.4146829],[24.4855265,58.4144976],[24.4860366,58.4143293],[24.4758535,58.4060733],[24.4768515,58.4057439],[24.4751031,58.4045373],[24.4738006,58.4035008],[24.4698808,58.403255],[24.4633312,58.4051386],[24.4622047,58.4036046],[24.4614142,58.4031939],[24.459234,58.4035565],[24.4587313,58.4013531]]]}},{"type":"Feature","id":"raama","properties":{"id":"raama","name_et":"Rääma","role":"district","labelPoint":[24.5285,58.3955],"osm_relation":4574700,"source":"OpenStreetMap relation (Pärnu quarters)","lastVerified":"2026-10-02","area_m2":9377895,"valid":true},"geometry":{"type":"Polygon","coordinates":[[[24.4934759,58.409055],[24.4948423,58.4089751],[24.4958849,58.4086746],[24.49628,58.4083961],[24.498552,58.4063942],[24.4982093,58.4064601],[24.4976543,58.401131],[24.4985797,58.3987252],[24.499163,58.3966734],[24.4998004,58.3948087],[24.5000763,58.3935519],[24.4987358,58.3928892],[24.4982981,58.3923873],[24.4992986,58.3921728],[24.5001789,58.3918538],[24.4991874,58.3917408],[24.5002276,58.3897848],[24.5039773,58.3901643],[24.5077365,58.3901904],[24.5113796,58.3900934],[24.5177723,58.3892181],[24.5211058,58.3884705],[24.5262093,58.386708],[24.5327819,58.3837319],[24.5366633,58.3816768],[24.5402606,58.380155],[24.5423659,58.3796632],[24.5482061,58.3786622],[24.5555411,58.3778469],[24.5561249,58.3794519],[24.5581973,58.3873671],[24.559574,58.3900287],[24.556736,58.3976086],[24.5552269,58.3975647],[24.5537222,58.3994362],[24.5496596,58.4012116],[24.5483082,58.4107769],[24.5151896,58.4084464],[24.5053812,58.4143301],[24.4993661,58.4129182],[24.4967042,58.4137236],[24.496796,58.4144039],[24.4942059,58.4148027],[24.4941482,58.4143992],[24.4939539,58.4144123],[24.4934759,58.409055]]]}},{"type":"Feature","id":"tammiste","properties":{"id":"tammiste","name_et":"Tammiste","role":"district","labelPoint":[24.552,58.393],"osm_relation":4574701,"source":"OpenStreetMap relation (Pärnu quarters)","lastVerified":"2026-10-02","area_m2":2935984,"valid":true},"geometry":{"type":"Polygon","coordinates":[[[24.5555411,58.3778469],[24.5577396,58.3774838],[24.5594295,58.3770421],[24.5604362,58.3765681],[24.5615161,58.3757012],[24.5620145,58.3746824],[24.561285,58.371747],[24.5615723,58.3694779],[24.5696608,58.3712016],[24.5702448,58.3728618],[24.5721327,58.3739782],[24.5724126,58.3743159],[24.5723726,58.3744721],[24.5732748,58.3746359],[24.581994,58.3781213],[24.5768518,58.3807734],[24.5757524,58.381184],[24.575541,58.3828018],[24.573442,58.3838604],[24.5675792,58.3864885],[24.5705972,58.3886819],[24.5782819,58.3932673],[24.5794176,58.3936574],[24.5803199,58.3937916],[24.5851904,58.3941111],[24.5851951,58.3940576],[24.5903764,58.3943354],[24.5904235,58.3941049],[24.5955201,58.3943962],[24.5950555,58.3967166],[24.5842471,58.3961111],[24.5809319,58.3952109],[24.5752463,58.3948934],[24.5727128,58.3950549],[24.5726537,58.3952512],[24.568567,58.3952635],[24.5685793,58.397601],[24.564093,58.3986774],[24.5638509,58.3983992],[24.5613382,58.3982764],[24.5578916,58.3976422],[24.556736,58.3976086],[24.559574,58.3900287],[24.5581973,58.3873671],[24.5561249,58.3794519],[24.5555411,58.3778469]]]}},{"type":"Feature","id":"kesklinn","properties":{"id":"kesklinn","name_et":"Kesklinn","role":"district","labelPoint":[24.5012,58.3855],"osm_relation":4574695,"source":"OpenStreetMap relation (Pärnu quarters)","lastVerified":"2026-10-02","area_m2":917507,"valid":true},"geometry":{"type":"Polygon","coordinates":[[[24.4897241,58.3880317],[24.4924796,58.3862208],[24.4924335,58.3853295],[24.4911326,58.3839503],[24.4945606,58.3833522],[24.4939186,58.3826868],[24.4926526,58.3815624],[24.4953769,58.3808977],[24.5022042,58.3812511],[24.5028905,58.3813207],[24.5037466,58.3815171],[24.5060598,58.3821495],[24.5064248,58.382122],[24.5065015,58.383712],[24.5107017,58.3856974],[24.5107514,58.3869873],[24.5111552,58.3887413],[24.5113796,58.3900934],[24.5077365,58.3901904],[24.5039773,58.3901643],[24.5002276,58.3897848],[24.4897241,58.3880317]]]}},{"type":"Feature","id":"eeslinn","properties":{"id":"eeslinn","name_et":"Eeslinn","role":"district","labelPoint":[24.5185,58.3825],"osm_relation":4574694,"source":"OpenStreetMap relation (Pärnu quarters)","lastVerified":"2026-10-02","area_m2":2079961,"valid":true},"geometry":{"type":"Polygon","coordinates":[[[24.5014746,58.3802608],[24.5200698,58.3738565],[24.5220222,58.3739981],[24.5271084,58.3748083],[24.5285163,58.3754494],[24.5312906,58.3778302],[24.5337218,58.3795845],[24.533879,58.3794766],[24.5355124,58.3804551],[24.5353117,58.3805524],[24.5366633,58.3816768],[24.5327819,58.3837319],[24.5262093,58.386708],[24.5211058,58.3884705],[24.5177723,58.3892181],[24.5113796,58.3900934],[24.5111552,58.3887413],[24.5107514,58.3869873],[24.5107017,58.3856974],[24.5065015,58.383712],[24.5064248,58.382122],[24.5060598,58.3821495],[24.5024071,58.3811551],[24.5014746,58.3802608]]]}},{"type":"Feature","id":"rannarajoon","properties":{"id":"rannarajoon","name_et":"Rannarajoon","role":"district","labelPoint":[24.4985,58.3728],"osm_relation":4574699,"source":"OpenStreetMap relation (Pärnu quarters)","lastVerified":"2026-10-02","area_m2":2429409,"valid":true},"geometry":{"type":"Polygon","coordinates":[[[24.4641202,58.366335],[24.4642806,58.3662956],[24.46536,58.3672086],[24.4720196,58.3713475],[24.4775793,58.376215],[24.4784716,58.3764032],[24.4809522,58.3762959],[24.4850452,58.3758472],[24.4874204,58.3754602],[24.4922204,58.3745042],[24.4990544,58.3727221],[24.5077489,58.3710896],[24.5108497,58.3703676],[24.5172744,58.3685268],[24.5191494,58.3677967],[24.5247706,58.3712354],[24.5269347,58.3732746],[24.5268353,58.3737544],[24.5268848,58.3747684],[24.5220222,58.3739981],[24.5200698,58.3738565],[24.5014746,58.3802608],[24.5024071,58.3811551],[24.5028905,58.3813207],[24.4953769,58.3808977],[24.4926526,58.3815624],[24.4939186,58.3826868],[24.4945606,58.3833522],[24.4911326,58.3839503],[24.4924335,58.3853295],[24.4924796,58.3862208],[24.4897241,58.3880317],[24.4868652,58.3875351],[24.4856052,58.3870562],[24.4842619,58.3863515],[24.4825774,58.385195],[24.4802632,58.3832362],[24.4776927,58.3790286],[24.4758578,58.3769012],[24.4777549,58.3764527],[24.4718589,58.3713263],[24.4648952,58.3669895],[24.4641202,58.366335]]]}},{"type":"Feature","id":"mai","properties":{"id":"mai","name_et":"Mai","role":"district","labelPoint":[24.5355,58.3745],"osm_relation":4574697,"source":"OpenStreetMap relation (Pärnu quarters)","lastVerified":"2026-10-02","area_m2":3408095,"valid":true},"geometry":{"type":"Polygon","coordinates":[[[24.5191494,58.3677967],[24.5193183,58.3678058],[24.5195382,58.3676912],[24.5202275,58.3676461],[24.5211474,58.3672532],[24.5221189,58.367183],[24.5228253,58.366956],[24.5231205,58.3669977],[24.52344,58.3666275],[24.5237184,58.3665664],[24.5235986,58.3664698],[24.5238178,58.3662502],[24.5242975,58.3662454],[24.5248745,58.365948],[24.5251003,58.365996],[24.5252954,58.3658157],[24.5258675,58.3655262],[24.5260911,58.3653184],[24.5263537,58.3652951],[24.5264895,58.3651739],[24.5267888,58.3651194],[24.5268861,58.3649791],[24.5274086,58.3647433],[24.5277825,58.3646968],[24.5283743,58.3647833],[24.5286488,58.3645043],[24.5293182,58.364225],[24.5293789,58.3640886],[24.5300107,58.3638497],[24.5301693,58.3637242],[24.5304293,58.3637603],[24.5305948,58.3638778],[24.5305314,58.3639811],[24.5306905,58.3640025],[24.5307689,58.3639654],[24.53073,58.3637851],[24.5307914,58.3636387],[24.5311285,58.3636201],[24.5312568,58.3634567],[24.5320357,58.36316],[24.5325816,58.3631441],[24.5326131,58.3630152],[24.5327686,58.362883],[24.5329278,58.3629005],[24.533021,58.3630326],[24.5331549,58.3630585],[24.5333458,58.3629368],[24.5337374,58.3628506],[24.5337866,58.3626816],[24.5343853,58.3626179],[24.534519,58.3622176],[24.5346413,58.3621012],[24.5348601,58.3620487],[24.5353361,58.3621035],[24.535617,58.3618001],[24.5360754,58.3617905],[24.5365167,58.3616208],[24.5367617,58.361648],[24.537212,58.3618223],[24.5376708,58.3622706],[24.5371748,58.3626373],[24.5372768,58.3626531],[24.537842,58.3623672],[24.5382963,58.3625203],[24.538275,58.3623811],[24.5378202,58.3620339],[24.5377839,58.3617995],[24.5375028,58.3615459],[24.5377891,58.3613916],[24.5376301,58.3612893],[24.5372402,58.3612321],[24.5372665,58.3611188],[24.5374394,58.3609879],[24.5379241,58.3608882],[24.5379773,58.3607098],[24.5381574,58.3606069],[24.5386293,58.360592],[24.5388737,58.3604094],[24.5390984,58.3604302],[24.53912,58.3605736],[24.539322,58.360569],[24.5394308,58.3604434],[24.5390917,58.3601479],[24.5395848,58.359716],[24.5397373,58.3597019],[24.5400118,58.3599349],[24.5539023,58.3671484],[24.5549772,58.366587],[24.5615723,58.3694779],[24.561285,58.371747],[24.5620145,58.3746824],[24.5615161,58.3757012],[24.5604362,58.3765681],[24.5594295,58.3770421],[24.5577396,58.3774838],[24.5555411,58.3778469],[24.5482061,58.3786622],[24.5423659,58.3796632],[24.5402606,58.380155],[24.5366633,58.3816768],[24.5353117,58.3805524],[24.5355124,58.3804551],[24.533879,58.3794766],[24.5337218,58.3795845],[24.5312906,58.3778302],[24.5285163,58.3754494],[24.5271084,58.3748083],[24.5268848,58.3747684],[24.5268353,58.3737544],[24.5269347,58.3732746],[24.5247706,58.3712354],[24.5191494,58.3677967]]]}},{"type":"Feature","id":"raekula","properties":{"id":"raekula","name_et":"Raeküla","role":"district","labelPoint":[24.555,58.3685],"osm_relation":4574698,"source":"OpenStreetMap relation (Pärnu quarters)","lastVerified":"2026-10-02","area_m2":4246913,"valid":true},"geometry":{"type":"MultiPolygon","coordinates":[[[[24.5401075,58.3599566],[24.5406914,58.3597657],[24.5412019,58.3597096],[24.5412241,58.3595693],[24.5411058,58.3594526],[24.5412553,58.3594027],[24.5415349,58.3594286],[24.5419846,58.3596492],[24.5421652,58.3596229],[24.5422567,58.3594819],[24.5419433,58.3593873],[24.5415425,58.3591435],[24.5414237,58.3590224],[24.5414541,58.3589008],[24.5418787,58.3588678],[24.5422174,58.359061],[24.542425,58.359091],[24.542451,58.3590031],[24.5427608,58.3588419],[24.543204,58.3589029],[24.5433308,58.3587467],[24.5435421,58.3586766],[24.5435143,58.3585315],[24.5438053,58.3584369],[24.5438176,58.3583302],[24.5441421,58.3582288],[24.544135,58.3581228],[24.5444964,58.3580863],[24.5447184,58.3579026],[24.5449192,58.3573469],[24.5455199,58.3573257],[24.5459187,58.3569768],[24.5461717,58.3568729],[24.5464943,58.3568456],[24.5464694,58.3565994],[24.5466812,58.3565017],[24.5463943,58.3564065],[24.5463971,58.3563444],[24.5467909,58.3562967],[24.5470072,58.3561817],[24.5465914,58.3561024],[24.5466005,58.35601],[24.5476696,58.3557569],[24.5480778,58.355742],[24.5482105,58.3558306],[24.5486418,58.355839],[24.548701,58.355232],[24.5489258,58.355084],[24.5491743,58.3550564],[24.5491512,58.3548748],[24.5492307,58.3546713],[24.5496129,58.3543709],[24.5495759,58.3541753],[24.5493623,58.3540826],[24.5493842,58.3537449],[24.549836,58.3536871],[24.5503535,58.3532535],[24.5506899,58.3532391],[24.5508816,58.3530322],[24.5510071,58.3530265],[24.5510843,58.3530566],[24.5511147,58.3531791],[24.5513648,58.3532904],[24.5513386,58.3534747],[24.5510408,58.3535833],[24.5510162,58.3536637],[24.551101,58.3538046],[24.5512358,58.3538083],[24.5516469,58.3535809],[24.5520055,58.3535592],[24.5520997,58.3532398],[24.5520373,58.3530964],[24.5521735,58.3529914],[24.5529381,58.3527235],[24.5530115,58.3526191],[24.5534367,58.3525709],[24.5535057,58.3524712],[24.5533444,58.3523262],[24.553364,58.3522269],[24.5536527,58.3521161],[24.5537217,58.352014],[24.5537122,58.3518371],[24.5534387,58.3516953],[24.5533374,58.3515161],[24.553687,58.351312],[24.5543151,58.3505738],[24.5548042,58.350476],[24.5550062,58.3507939],[24.55533,58.3508396],[24.5554027,58.3505326],[24.5558285,58.350316],[24.5557696,58.3501878],[24.5555302,58.3500593],[24.5554775,58.3498509],[24.5554911,58.3497857],[24.5558061,58.3496983],[24.5556577,58.3495166],[24.5556812,58.3494481],[24.5561246,58.3492107],[24.5563434,58.3491827],[24.5563069,58.3489794],[24.5568967,58.3484455],[24.5574517,58.3484905],[24.5572168,58.3483568],[24.5570953,58.3480613],[24.5570135,58.3480511],[24.5557759,58.3490976],[24.5554392,58.3492535],[24.5546084,58.3492915],[24.5543875,58.3492129],[24.5544281,58.3490665],[24.5550308,58.348789],[24.5551407,58.3483492],[24.5558098,58.3478298],[24.5560028,58.3475895],[24.5564832,58.3473737],[24.5568988,58.3470547],[24.5572825,58.3470063],[24.557382,58.3467629],[24.5576586,58.3466162],[24.5583898,58.3458477],[24.5591243,58.3455539],[24.5597175,58.3455853],[24.5597431,58.3455087],[24.5595823,58.3453773],[24.5595401,58.3451816],[24.5597403,58.3448811],[24.5602835,58.3446934],[24.5604669,58.3447168],[24.5614918,58.3453317],[24.5617887,58.3452999],[24.5618635,58.3451777],[24.5621278,58.345095],[24.5618723,58.3450092],[24.5617175,58.3448188],[24.561238,58.3448366],[24.5611083,58.3446489],[24.5606005,58.3445559],[24.5607838,58.3441436],[24.5611541,58.343837],[24.5617632,58.3437669],[24.5619363,58.3436802],[24.5624972,58.3439011],[24.5665005,58.3440438],[24.5721518,58.345885],[24.5742678,58.3440982],[24.5775712,58.3416113],[24.5849278,58.3440498],[24.5867735,58.3443964],[24.5847123,58.3470763],[24.5826133,58.3491976],[24.5828529,58.3493213],[24.5777973,58.3544101],[24.5749473,58.3568274],[24.5809718,58.3596381],[24.5801807,58.3608416],[24.5797501,58.3634857],[24.5785293,58.3632427],[24.5703656,58.3634623],[24.5638047,58.3656098],[24.5617261,58.3685041],[24.5615723,58.3694779],[24.5549772,58.366587],[24.5539023,58.3671484],[24.5401075,58.3599566]]],[[[24.5422252,58.3585679],[24.5424064,58.3584341],[24.5428024,58.3583838],[24.543254,58.3580898],[24.5434861,58.3581992],[24.5432939,58.3584225],[24.5429964,58.3586075],[24.5423687,58.358702],[24.5422252,58.3585679]]]]}},{"type":"Feature","id":"lodja","properties":{"id":"lodja","name_et":"Lodja","role":"district","labelPoint":[24.575,58.378],"osm_relation":4574696,"source":"OpenStreetMap relation (Pärnu quarters)","lastVerified":"2026-10-02","area_m2":963166,"valid":true},"geometry":{"type":"Polygon","coordinates":[[[24.5776407,58.3580443],[24.5790744,58.3578058],[24.5977334,58.3577198],[24.6007958,58.3582315],[24.6039016,58.3596256],[24.6044385,58.3599998],[24.6022139,58.3610723],[24.5999211,58.3618641],[24.5970248,58.3623356],[24.5950884,58.363009],[24.5942301,58.3637851],[24.5940255,58.3660336],[24.593589,58.366729],[24.591522,58.3677704],[24.5847711,58.3645282],[24.5797501,58.3634857],[24.5801807,58.3608416],[24.5809718,58.3596381],[24.5776407,58.3580443]]]}}]}