{"type":"FeatureCollection","features":[{"type":"Feature","id":"d-haabersti","properties":{"id":"d-haabersti","name":"Haabersti","color":"#0E7490","kind":"free","summary":"Tasuta elamut\u00e4navad \u00b7 P&R l\u00e4hedal","layerRole":"district","labelRank":40,"fillSort":10,"labelLng":24.641128922788063,"labelLat":59.421346101417086},"geometry":{"type":"Polygon","coordinates":[[[24.594821109487338,59.452357291770305],[24.597017831752815,59.45182737637804],[24.60036346615864,59.45128467163869],[24.603391164906874,59.453365220672204],[24.603655127268013,59.45338636307914],[24.60825400558864,59.45170858777046],[24.60845578331725,59.45161438954943],[24.60816798650546,59.45148187796851],[24.603679132532918,59.45320833792408],[24.601648499170004,59.45195507556663],[24.6043936653157,59.450833815805154],[24.60483726415035,59.45109416462956],[24.605602300609135,59.4507994504257],[24.606334059758865,59.45129239835208],[24.6060192178187,59.45100623815137],[24.606523873180418,59.451219263298974],[24.606303636457163,59.450994249151435],[24.606654654001996,59.450859957835],[24.607390579015032,59.45118968693589],[24.606501425253736,59.450501241920065],[24.606885978625602,59.450325235848766],[24.605865851533785,59.44960588204887],[24.605783120542515,59.449384451648676],[24.607173477175195,59.44876987025531],[24.60779167468192,59.448693698755],[24.60786565772606,59.44829944936772],[24.615737970976774,59.44673899595859],[24.615679893594226,59.44659218698318],[24.616954258674966,59.44575276864982],[24.61899887078983,59.44524250733153],[24.619246189370884,59.44504523763554],[24.622114619189514,59.444121009508564],[24.622506259458806,59.44352043666659],[24.624848734477705,59.44287942248527],[24.625890478882813,59.44210044427715],[24.628662174104623,59.44117355799487],[24.633148365074952,59.439274182821194],[24.633656306758443,59.438667071844264],[24.634425791944455,59.438323148869614],[24.639437473705172,59.43742236368416],[24.64032466629205,59.43698275066041],[24.641689294221184,59.436652231159954],[24.642639899053368,59.43617515222302],[24.643002725510982,59.43577224920908],[24.645838282295905,59.43518935950858],[24.64739554407576,59.434565157106526],[24.648350416758525,59.43385922020239],[24.649451745845624,59.43349574450491],[24.651521824637733,59.43178441885796],[24.65250335175554,59.43126105676376],[24.653231878217767,59.430318495146196],[24.65426858151452,59.429634392464706],[24.65622864432763,59.429507268573204],[24.656413078411077,59.429544976749995],[24.656069238850588,59.42971011500572],[24.657452947920095,59.42978789666961],[24.65836513902179,59.43006264548175],[24.659890652572553,59.43008323615998],[24.661226520909135,59.42979722626507],[24.66131048694931,59.42961555142864],[24.66210221267644,59.42924015197432],[24.664301282092755,59.42881011129546],[24.665010156763785,59.429274522433175],[24.664863422772903,59.42952634387823],[24.6644423699569,59.42961761007412],[24.664375569526168,59.429931426353974],[24.663843276791884,59.43015102002796],[24.6637031121232,59.43044143455993],[24.664014586253206,59.43071322974571],[24.666515963739197,59.43112698019794],[24.666669340459105,59.43136539781359],[24.668665416764714,59.43158555665475],[24.669174957861976,59.43199153006687],[24.669467677316344,59.431600793156974],[24.669278585253245,59.431475471996436],[24.669693054861522,59.4314941634728],[24.669684466530107,59.431948826191565],[24.66987507879097,59.432151394357405],[24.670263255703293,59.43201867847662],[24.67046661392824,59.432276151567876],[24.67325564146409,59.43262591161892],[24.673317047032388,59.43293016205576],[24.673845669365715,59.4332647081287],[24.673833768629546,59.43354853349871],[24.674839724150143,59.43368600703392],[24.67491843674095,59.43397976846286],[24.675141266544912,59.43403953932173],[24.675058868729018,59.434149901302604],[24.675355357942927,59.43439500422195],[24.676556876445428,59.43453888977643],[24.67688728451657,59.434728844343184],[24.677517243235084,59.434581493268006],[24.678079824647195,59.43412546471903],[24.678184778636247,59.434270521027166],[24.677607497752163,59.434720683059986],[24.67785213959648,59.435291411520545],[24.677341530400046,59.43542774980661],[24.67758204988362,59.43564342183942],[24.678883540547368,59.435825399553615],[24.679401010711548,59.43618077997677],[24.679186568330195,59.436397310057984],[24.67949827217851,59.436524955716784],[24.67957263768532,59.43674445270156],[24.68266978477936,59.435704797918085],[24.68793392489604,59.430330424356306],[24.688462773476807,59.42994732362529],[24.693099595613795,59.429958651022446],[24.69983734649903,59.429465415478425],[24.69886092854701,59.427634290714124],[24.698436381914195,59.42712100931198],[24.696147527164907,59.427555068468045],[24.694504514473657,59.42576606278332],[24.690085599800955,59.425688275149646],[24.689318911603458,59.42555115152261],[24.688890947454173,59.42514928438704],[24.68848977597255,59.42506372791331],[24.68707767948397,59.42371318586449],[24.685212821330364,59.424349867561304],[24.683956340257406,59.42304602500115],[24.679902213351056,59.424432375709024],[24.672781744914477,59.41818450316023],[24.66999431278713,59.41636835316986],[24.65144248541801,59.40819512662327],[24.648609869074964,59.407120110747265],[24.64606871315707,59.40573012214589],[24.64429511860145,59.404083761048916],[24.64386525872407,59.40291959732269],[24.64393121042475,59.4017797483983],[24.644830395156628,59.39986474271719],[24.644689447258944,59.398724420393705],[24.643936210128437,59.397557383360436],[24.64243882831751,59.39631969303347],[24.639891581079794,59.395326295249006],[24.63028001765931,59.393523019856005],[24.628658834611,59.392961758030154],[24.626687050229375,59.391862841040606],[24.625995674006635,59.39116934394769],[24.625133363585924,59.389886833967076],[24.622131535848673,59.3905889470136],[24.62020329634777,59.38849876885091],[24.59432205860883,59.39517611950806],[24.594710354166367,59.39539275932358],[24.59411092116706,59.39559900788977],[24.59739255008123,59.39701634385636],[24.597648012279567,59.39696467031669],[24.60478595309306,59.39962856329247],[24.607327267629024,59.40082025925343],[24.610614974159525,59.40317173588681],[24.617558288015047,59.40670942531135],[24.619220117004204,59.407236460246494],[24.616867472265216,59.40863811113017],[24.613512684269487,59.40958532047869],[24.61090394836181,59.410540865647334],[24.609776059718353,59.41119385359703],[24.60902245005589,59.412081323346015],[24.60822611121158,59.412535167308334],[24.60762914784749,59.41256466772372],[24.605534084023976,59.41489792480849],[24.604494789216304,59.416948479975446],[24.604880654038276,59.41964617783302],[24.606907121640308,59.4231177824405],[24.6077370984854,59.42519686532976],[24.61058093213333,59.42541992679955],[24.610756832154856,59.426126290565364],[24.610031170850892,59.426799693064204],[24.609721803987938,59.42743699332989],[24.609511509221864,59.4274171682657],[24.607792397964925,59.42863445129276],[24.60714348785577,59.428710243373835],[24.607112417904982,59.42909517558795],[24.606301507094184,59.42924450823903],[24.606389663646283,59.42977595162596],[24.60565840727608,59.429813507896384],[24.60553960948596,59.430185471449384],[24.60478806205993,59.43056034297617],[24.60496814387688,59.430849221033085],[24.60393465213897,59.43094756242935],[24.603681409460656,59.43130379873051],[24.595501690335155,59.43248352564881],[24.57765675238988,59.436951666163154],[24.574033702643835,59.43726464126831],[24.57176866575219,59.43716307114646],[24.56651926401224,59.435615419985545],[24.564952606736075,59.43488080778962],[24.56235655704286,59.432730288581176],[24.551465975621454,59.43807716949164],[24.550348450318648,59.4387756439176],[24.550528589914002,59.43891305692877],[24.552236557294915,59.43901435849941],[24.552161098076343,59.439218208925936],[24.552654066380647,59.43903934905269],[24.55282996829096,59.439274829250586],[24.553298363614715,59.43937982926618],[24.554047800293574,59.43936777010495],[24.554560401531468,59.43914127353554],[24.555089110835183,59.43936783652491],[24.555366597534597,59.43921215880754],[24.5556573323311,59.4395125199414],[24.55606708982867,59.43959844362487],[24.556710232935128,59.43968635178573],[24.557017245776652,59.43955283003404],[24.55710708540803,59.4398748370997],[24.557966652391666,59.439997478256906],[24.558430937218713,59.44038475201524],[24.558774745665374,59.44036100856027],[24.559263738364344,59.44065309234841],[24.55949464816424,59.440681824816096],[24.55952729005936,59.44053757765298],[24.560827916959813,59.4410505385086],[24.56146193440335,59.44111320514991],[24.56230724584944,59.44160729314353],[24.56255740778015,59.44156462663603],[24.56276350417973,59.441326041042096],[24.562681740852664,59.44114365493217],[24.563060975690103,59.44096821323544],[24.563822500155556,59.44115660444502],[24.563526874135487,59.44127226499506],[24.563607661925857,59.44139522826098],[24.564436893395794,59.441266882378116],[24.564273580589948,59.441445860838506],[24.56447690166244,59.441569784142764],[24.56408928277631,59.441590758853344],[24.56412127146429,59.44176147146546],[24.565154590371904,59.441626304306716],[24.565452337936975,59.441815189863206],[24.565103101921235,59.441864229484814],[24.564971776270323,59.44203712904869],[24.565149417367643,59.44219533157212],[24.564935041988072,59.44228539014523],[24.565734130142626,59.442801938777635],[24.565488158760083,59.44292184807446],[24.566297687732067,59.4430119610314],[24.56697221923233,59.44340276198804],[24.567470974581653,59.44339764278673],[24.567827137083405,59.44376454982613],[24.567754899585715,59.443981765822514],[24.568003143213854,59.443998523804986],[24.568034511432376,59.44413061113548],[24.56868078523928,59.44404908283893],[24.568450191195208,59.44421647186314],[24.568578963141338,59.44441647881953],[24.569108016806844,59.44447807724935],[24.569074849053507,59.44493877255768],[24.569376447658616,59.44483050204303],[24.569789896581174,59.44513178803812],[24.570073494697013,59.44499388056595],[24.570306427137957,59.44514143748357],[24.570047282698187,59.44534609326694],[24.570132706777304,59.44557005703236],[24.571027247386958,59.44567909155606],[24.571011595726958,59.44596440497354],[24.571221574337955,59.446134344911826],[24.57112833536749,59.4463159989107],[24.571619284581644,59.446190559512765],[24.572272881274163,59.446544278422934],[24.57293185960185,59.446174457491445],[24.573142247878973,59.44636816248582],[24.57332600879318,59.44706116273105],[24.573195775892174,59.447645590997915],[24.574110541482252,59.448444363068894],[24.585,59.45],[24.594821109487338,59.452357291770305]]]}},{"type":"Feature","id":"d-kristiine","properties":{"id":"d-kristiine","name":"Kristiine","color":"#4D7C0F","kind":"free","summary":"Tasuta t\u00e4navad tsooni piiri taga","layerRole":"district","labelRank":50,"fillSort":10,"labelLng":24.713181300806006,"labelLat":59.413529732091085},"geometry":{"type":"Polygon","coordinates":[[[24.673926226830826,59.419309256752165],[24.679902213351056,59.424432375709024],[24.683956340257406,59.42304602500115],[24.685212821330364,59.424349867561304],[24.68707767948397,59.42371318586449],[24.68848977597255,59.42506372791331],[24.688890947454173,59.42514928438704],[24.689318911603458,59.42555115152261],[24.690085599800955,59.425688275149646],[24.694504514473657,59.42576606278332],[24.696147527164907,59.427555068468045],[24.698436381914195,59.42712100931198],[24.69886092854701,59.427634290714124],[24.69983734649903,59.429465415478425],[24.70164555086442,59.42933545036106],[24.704288944928866,59.42940601976581],[24.709647389622457,59.43088967858113],[24.715147119385286,59.43269177662239],[24.716445970154187,59.432882312007706],[24.71793406955205,59.43333477101487],[24.723703144908907,59.43431940092845],[24.72329380168733,59.43247939142231],[24.7234316082876,59.43155007613305],[24.724037397501654,59.43041167653053],[24.725330335930455,59.428676696009965],[24.728585532756448,59.42502767743866],[24.72867803766044,59.4244432856238],[24.729674601589608,59.423050122292075],[24.730836191986132,59.42092506880353],[24.733987085813542,59.41410895387306],[24.73425509895075,59.41315214932759],[24.73421507252587,59.41155969471021],[24.732813882044763,59.40955288643889],[24.73299948893592,59.409510252829136],[24.731538617151013,59.40783953295216],[24.73117060193736,59.407664779104024],[24.730204045073638,59.406481579929995],[24.73031416628694,59.406452739989156],[24.726519128417554,59.402434108247775],[24.730150947131897,59.40290279880783],[24.728763521967885,59.400967181922624],[24.72534687096661,59.39414732889955],[24.72548770099932,59.39378255168547],[24.72376305503512,59.39391388272845],[24.721560712687417,59.394462326961836],[24.72007610017405,59.395066235896806],[24.71707938780722,59.393302724760254],[24.714221918914806,59.39484558673955],[24.709338029448872,59.394491676012414],[24.7090284772052,59.394454716786505],[24.708792387385714,59.39402661937427],[24.70543739837819,59.39392580158934],[24.701939818280604,59.39340520296128],[24.70192712475608,59.393922297810356],[24.70258341009088,59.39538221682559],[24.70331786367469,59.395115320808856],[24.705364036323733,59.39658412932681],[24.705810998975743,59.39720870077962],[24.706347061152915,59.40200614384349],[24.7064229046773,59.40229247810303],[24.70719142745647,59.40296285916507],[24.706775938500652,59.40316120503181],[24.708261152076886,59.404668636882796],[24.70936922909433,59.405408490531315],[24.71052632490346,59.406541782275966],[24.70983760958566,59.40663464190412],[24.70890846098849,59.408624552285254],[24.707620810453072,59.40892862442754],[24.70727260143722,59.409706032497446],[24.70735303238943,59.409790285783984],[24.706030570645314,59.410104928717374],[24.70623698011429,59.410362333073586],[24.69054151445013,59.41390731485458],[24.690813780897116,59.41425502396756],[24.680644492985582,59.41690500664805],[24.678551752813718,59.41691581352799],[24.673694959226065,59.41896427550669],[24.673926226830826,59.419309256752165]]]}},{"type":"Feature","id":"d-mustamae","properties":{"id":"d-mustamae","name":"Mustam\u00e4e","color":"#1D4E89","kind":"free","summary":"Elamupiirkonna tasuta t\u00e4navad & parklad","layerRole":"district","labelRank":60,"fillSort":10,"labelLng":24.676792301727282,"labelLat":59.404864968055875},"geometry":{"type":"Polygon","coordinates":[[[24.639891581079794,59.395326295249006],[24.64243882831751,59.39631969303347],[24.643936210128437,59.397557383360436],[24.64446079903714,59.398340746370025],[24.644689447258944,59.398724420393705],[24.644830395156628,59.39986474271719],[24.64393121042475,59.4017797483983],[24.643822768083325,59.40267466667703],[24.64401038557188,59.40350870659704],[24.64429511860145,59.404083761048916],[24.64521394626347,59.405061299228954],[24.64653268748201,59.40607252280653],[24.648609869074964,59.407120110747265],[24.65144248541801,59.40819512662327],[24.66999431278713,59.41636835316986],[24.672781744914477,59.41818450316023],[24.673694959226065,59.41896427550669],[24.678551752813718,59.41691581352799],[24.680644492985582,59.41690500664805],[24.690813780897116,59.41425502396756],[24.69054151445013,59.41390731485458],[24.70623698011429,59.410362333073586],[24.706030570645314,59.410104928717374],[24.70735303238943,59.409790285783984],[24.70727260143722,59.409706032497446],[24.707620810453072,59.40892862442754],[24.70890846098849,59.408624552285254],[24.70983760958566,59.40663464190412],[24.71052632490346,59.406541782275966],[24.70936922909433,59.405408490531315],[24.708261152076886,59.404668636882796],[24.706775938500652,59.40316120503181],[24.70719142745647,59.40296285916507],[24.7064229046773,59.40229247810303],[24.705865302523037,59.397440179701604],[24.70553951621614,59.396758502022095],[24.70331786367469,59.395115320808856],[24.70258341009088,59.39538221682559],[24.70192712475608,59.393922297810356],[24.701939818280604,59.39340520296128],[24.70041653946766,59.393131040297334],[24.697110700587572,59.39286334899581],[24.696073194130992,59.392552388104406],[24.69618589639458,59.39308070460779],[24.692130891268427,59.39278416645265],[24.689599569263763,59.39307380647516],[24.687327823721468,59.39236661640328],[24.68473241077601,59.39207410040443],[24.681195324015214,59.39100641875314],[24.678924763591784,59.391517357670054],[24.678666074331296,59.39139835101098],[24.675155474686687,59.392249901639396],[24.67417854693907,59.392636740163724],[24.6639180929535,59.391224037005166],[24.66270280459305,59.39329529283154],[24.66128097110853,59.39312862263567],[24.65887948979288,59.39336798820699],[24.659162055168398,59.39412427987642],[24.658632254965088,59.394294817817986],[24.65726819562861,59.39440712678018],[24.655662457988562,59.39391743298559],[24.65592201980709,59.39362939843705],[24.652898082265587,59.392852568237],[24.65217084374254,59.39351582636276],[24.64863566221126,59.39296280201763],[24.64127942609299,59.393680813055745],[24.639198653194114,59.39519149577453],[24.639891581079794,59.395326295249006]]]}},{"type":"Feature","id":"d-nomme","properties":{"id":"d-nomme","name":"N\u00f5mme","color":"#15803D","kind":"free","summary":"Peaaegu k\u00f5ik t\u00e4navad tasuta","layerRole":"district","labelRank":70,"fillSort":10,"labelLng":24.689460005046715,"labelLat":59.37133906017513},"geometry":{"type":"Polygon","coordinates":[[[24.72548770099932,59.39378255168547],[24.7274018076822,59.39256111960066],[24.728787548279495,59.394300649793415],[24.731218064720753,59.3938028150734],[24.73336232761987,59.390418294939735],[24.738588585862804,59.38559759292388],[24.739909340161702,59.38472250380975],[24.748180192772633,59.37673151044528],[24.74880484250926,59.376404063983934],[24.76054055629314,59.37492672316283],[24.762968886435974,59.36775139718743],[24.76629522371819,59.36511713943118],[24.77356295110566,59.36008988223655],[24.71467000206339,59.35786797890464],[24.719111820154946,59.36402289925433],[24.714445688149898,59.36413304048624],[24.71407314251556,59.363295628203325],[24.70751699361982,59.36489556551084],[24.70716067697703,59.364554280848004],[24.702340559844945,59.36212868411631],[24.69708097686247,59.35795208568811],[24.696039817247254,59.35626387501515],[24.671600338267655,59.364874559987626],[24.659487946171488,59.36267464878065],[24.65534046174708,59.35840464726633],[24.649062198840152,59.354951805006515],[24.6469825894818,59.354687206218536],[24.646528457696192,59.354983614541936],[24.64571211788683,59.35520603052747],[24.644976420691265,59.355230444306365],[24.643632022346605,59.35476012342378],[24.6437180307715,59.35438232873667],[24.642892354825737,59.35441757250611],[24.642774038951654,59.354159636461375],[24.642272821760596,59.35411900238946],[24.64174614694508,59.353806604605886],[24.640525404432893,59.35403096349875],[24.63817693454116,59.35354022094105],[24.634215407559164,59.353924894093595],[24.634102647172714,59.35364909462538],[24.63441964423627,59.35348413548861],[24.634375914095077,59.35332240384204],[24.633084740787453,59.35335834673319],[24.632902250090606,59.353244826008066],[24.632971906346082,59.352920604709155],[24.632586348825043,59.352839261226755],[24.632125835433094,59.352952906959395],[24.63172184930042,59.35329210898045],[24.62976291725864,59.351982198548924],[24.628968322191138,59.35180623394439],[24.62639368146995,59.352134995274525],[24.625524011104996,59.352467483047306],[24.62434659022017,59.35251765610864],[24.623478215330362,59.352922924070356],[24.621597628423565,59.35334635106443],[24.618904050226046,59.353382840658654],[24.617693776439932,59.35371093757093],[24.615796652348287,59.35354453042403],[24.615405389994343,59.353305678947514],[24.615376163911893,59.352650615918044],[24.61479004986781,59.352415646663005],[24.613057963204902,59.352524770009985],[24.61215474350534,59.35277858246747],[24.611674825189255,59.35425315947268],[24.613720549058666,59.35410544619636],[24.614508685199198,59.35440930386618],[24.61388070690458,59.35573600977176],[24.610883109654953,59.356030783254155],[24.615609131517175,59.36771190507541],[24.623491228805005,59.386083820945565],[24.6269937764135,59.38634796170549],[24.62527919142598,59.3871881174238],[24.62020329634777,59.38849876885091],[24.622131535848673,59.3905889470136],[24.625133363585924,59.389886833967076],[24.625995674006635,59.39116934394769],[24.626687050229375,59.391862841040606],[24.627595348105093,59.39247061600575],[24.63028001765931,59.393523019856005],[24.639198653194114,59.39519149577453],[24.64127942609299,59.393680813055745],[24.64863566221126,59.39296280201763],[24.65217084374254,59.39351582636276],[24.652898082265587,59.392852568237],[24.65592201980709,59.39362939843705],[24.655662457988562,59.39391743298559],[24.65726819562861,59.39440712678018],[24.659162055168398,59.39412427987642],[24.65887948979288,59.39336798820699],[24.66128097110853,59.39312862263567],[24.66270280459305,59.39329529283154],[24.6639180929535,59.391224037005166],[24.67417854693907,59.392636740163724],[24.675155474686687,59.392249901639396],[24.678666074331296,59.39139835101098],[24.678924763591784,59.391517357670054],[24.681195324015214,59.39100641875314],[24.68473241077601,59.39207410040443],[24.687327823721468,59.39236661640328],[24.689599569263763,59.39307380647516],[24.692130891268427,59.39278416645265],[24.69618589639458,59.39308070460779],[24.696073194130992,59.392552388104406],[24.697110700587572,59.39286334899581],[24.69987885084355,59.39304773112127],[24.70543739837819,59.39392580158934],[24.708792387385714,59.39402661937427],[24.7090284772052,59.394454716786505],[24.714221918914806,59.39484558673955],[24.71707938780722,59.393302724760254],[24.72007610017405,59.395066235896806],[24.721560712687417,59.394462326961836],[24.72376305503512,59.39391388272845],[24.72548770099932,59.39378255168547]]]}},{"type":"Feature","id":"d-pirita","properties":{"id":"d-pirita","name":"Pirita","color":"#0284C7","kind":"mixed","summary":"Ranna tsoon tasuline \u00b7 elamud tasuta","layerRole":"district","labelRank":80,"fillSort":10,"labelLng":24.88501059369881,"labelLat":59.47078302319986},"geometry":{"type":"MultiPolygon","coordinates":[[[[24.823520464035784,59.46916259207583],[24.82161086184342,59.4698802150945],[24.821588403254736,59.46991749748299],[24.823520464035784,59.46916259207583]]],[[[24.81042255153626,59.45706997722406],[24.811656952817895,59.458415851548246],[24.816203905285338,59.461093224778374],[24.816360704942714,59.46130322221279],[24.81590758543914,59.46164031091995],[24.821630715666405,59.465125859856954],[24.822437382052264,59.465893391825226],[24.82248910858108,59.46622289418037],[24.822290015175724,59.4664410485985],[24.821888124510448,59.466602524882425],[24.821267325379885,59.466523195916935],[24.81688255328928,59.468352595075736],[24.81746760882974,59.47010803140385],[24.81764236772147,59.47009060430651],[24.816986175501086,59.468412866648144],[24.82114535389468,59.466671040025176],[24.822824340713993,59.466929479640136],[24.823060251143414,59.46726971696174],[24.822946735219084,59.467283796761066],[24.823100722692097,59.46773745936256],[24.820424123838862,59.468850591325875],[24.82058727795694,59.468958031557776],[24.82265395915585,59.46809681550873],[24.823293808442774,59.46823841867401],[24.82347407545256,59.46869191566988],[24.824987348437535,59.469578328703214],[24.82161895005675,59.47094392305329],[24.81954974763485,59.47085726281191],[24.81817892469258,59.47055081205116],[24.819270752173114,59.47091099614207],[24.82159734720618,59.47101685681096],[24.825108253302687,59.46962808527383],[24.825352298908864,59.46969935652398],[24.82607806504777,59.46928772880928],[24.826906504926896,59.46937910386627],[24.828134755934244,59.47006521367912],[24.830667074659917,59.47214708475399],[24.83199390277518,59.47351595788961],[24.83422133549351,59.476364817473936],[24.835900813965466,59.47924236989674],[24.83689556462628,59.48157899845542],[24.83776154219622,59.48461322599991],[24.837730763271363,59.486690417476495],[24.83716983017537,59.487757733829916],[24.83609078165345,59.489021471236576],[24.8344459132748,59.4893706264656],[24.833081130523198,59.49],[24.86,59.49],[24.845,59.48],[24.845,59.47],[24.87,59.472],[24.90391186285465,59.4770867794282],[24.905201475415385,59.47625460988889],[24.907916024473117,59.47631914375192],[24.90834443932036,59.47661630731352],[24.914388349657056,59.47364022975582],[24.91493648550074,59.47284750807435],[24.914866149583716,59.47174856308846],[24.915261634798693,59.4707087835878],[24.915269713425722,59.46992129473547],[24.908739226722318,59.46918053448343],[24.90781948146809,59.46786012315814],[24.904609615736312,59.46725670466945],[24.90393236288077,59.463399959663846],[24.904032308070683,59.46276487023316],[24.905480127766097,59.46056348597583],[24.90386011599509,59.460119976531075],[24.902141256850488,59.45924774925123],[24.901141728697517,59.458312639402145],[24.90021706726883,59.45689414961436],[24.898574887405253,59.455820778946],[24.894492245151998,59.45460352281967],[24.893309767620206,59.454470401805246],[24.88479513524895,59.45495723432724],[24.876382106980564,59.454863407909045],[24.869791001817795,59.45514628676188],[24.861747697228616,59.45478462716513],[24.8547513129239,59.45310380292516],[24.852905673104498,59.45211439372316],[24.851394955256065,59.451679937060184],[24.849954005449405,59.45146787032575],[24.847373569054106,59.45143100771234],[24.841295925325834,59.45240150247566],[24.839763069360075,59.45224785457231],[24.83292233158706,59.453053451164166],[24.82765024490215,59.45297376394813],[24.823279981459898,59.453261145582715],[24.81719478584697,59.45407902691271],[24.81560116764901,59.45370113385046],[24.816035119520446,59.45452004070842],[24.816397786749,59.456750805299606],[24.81042255153626,59.45706997722406]]]]}},{"type":"Feature","id":"d-kesklinn","properties":{"id":"d-kesklinn","name":"Kesklinn","color":"#0F766E","kind":"mixed","summary":"Tasuline tsoon \u00b7 \u00f6\u00f6sel & p\u00fchap\u00e4eval tasuta","layerRole":"district","labelRank":30,"fillSort":10,"labelLng":24.774788046775534,"labelLat":59.44109698256832},"geometry":{"type":"Polygon","coordinates":[[[24.76381437696116,59.44605772523534],[24.762362272662894,59.44547574661231],[24.762702673763926,59.44530292064477],[24.762525660958,59.445214804203],[24.762879709243137,59.44473881703703],[24.76707803555505,59.44552710901145],[24.76732758250669,59.44533697212648],[24.766573930073662,59.44490456569532],[24.76365336440294,59.44437182373257],[24.763855786583132,59.444161167383314],[24.763269107386417,59.44401748464961],[24.76340437377645,59.44380424591216],[24.757940422589495,59.44276015963155],[24.758039248068105,59.442612506986514],[24.757668168414867,59.44245418747153],[24.758468462366686,59.441315994605354],[24.760767310365797,59.44197872777781],[24.76017008288149,59.442800794808434],[24.766982819897265,59.44401522431895],[24.766846807979174,59.44419430008378],[24.767154390213815,59.44425045145856],[24.76729351783334,59.444080271186664],[24.76745176744644,59.44411203461541],[24.767645622722195,59.44417033313307],[24.767329623447395,59.444129089448055],[24.767222114633277,59.444278285425746],[24.7678482058581,59.444487090876116],[24.76808492676246,59.44437576901228],[24.767863181162635,59.44424483545167],[24.76815416603818,59.44434119411265],[24.771069000731448,59.44590940119177],[24.771501502843098,59.445811783592866],[24.76975670493922,59.443993099129074],[24.771325683499335,59.4435812956836],[24.773681949367234,59.44534437062756],[24.773850309717847,59.445435495301105],[24.77421982212245,59.445262468185206],[24.776156631788925,59.446273229952055],[24.77653153663328,59.446080850111265],[24.777388765252706,59.446057965578994],[24.779126539169336,59.44524393427307],[24.78080407000625,59.44486108979691],[24.781623724131954,59.44407647342909],[24.784380483475353,59.44372626313326],[24.7858429196871,59.443805428650556],[24.789698891521947,59.443463678341296],[24.791715506630357,59.44386738862216],[24.79478456925452,59.44474627002011],[24.797922403617516,59.44593963183145],[24.80008690334308,59.44692340914374],[24.80202816543027,59.448086795305564],[24.805182226008476,59.450316896569376],[24.805985282192697,59.45108456305852],[24.80825584015352,59.45455313836888],[24.810362427570944,59.45699606199744],[24.816397786749,59.456750805299606],[24.816035119520446,59.45452004070842],[24.81560116764901,59.45370113385046],[24.81330910903879,59.45229942799704],[24.813010555374415,59.451770873786],[24.813348379882903,59.450272683974845],[24.8128784175104,59.44695503200649],[24.812448084463878,59.44615837611913],[24.81184765732824,59.44556928099557],[24.814581911945407,59.44510371546561],[24.814533125795183,59.44489304715766],[24.813647288190918,59.444570180685936],[24.812797427446576,59.44404205896902],[24.812189296381558,59.44312764215305],[24.80789145028026,59.44087797053128],[24.798554809616583,59.436550591210526],[24.798273950922184,59.43539046860972],[24.79623178021779,59.43536717638988],[24.793831264519714,59.43510978599924],[24.793814267277202,59.43450371944639],[24.79029226769394,59.43341953829224],[24.784638874675696,59.43018627702366],[24.78092987357214,59.427394397349275],[24.78030289801253,59.427136629379575],[24.779279793231932,59.42715309043748],[24.780895092705464,59.426255063547224],[24.785129984635944,59.42465353233279],[24.787000785422293,59.42448041807966],[24.78717649092101,59.423880625019876],[24.78695852271167,59.423531300306216],[24.790700994300742,59.42096086959956],[24.79246046131439,59.42014502885246],[24.79229417362251,59.419762715214645],[24.79577496483041,59.417256107271655],[24.801510045147996,59.412331790895074],[24.808315431733735,59.41207175972772],[24.81381583801446,59.41209282709826],[24.814392003913518,59.41168662999657],[24.815692535054136,59.411223941569304],[24.819052932672435,59.40951676369698],[24.81834674887984,59.40911406774742],[24.81765408060258,59.40939769097959],[24.81465916419792,59.4078532812712],[24.816072879328026,59.407132855086914],[24.813624493956365,59.402337221041286],[24.812784823112235,59.402438983942176],[24.809900133496914,59.40477600300144],[24.809461710097384,59.40435081055154],[24.80668633732204,59.40664399552764],[24.80707595707709,59.407100696660784],[24.806208911559644,59.407777561705494],[24.795747329062696,59.40755302118378],[24.79465741383672,59.40667560215027],[24.792966294444465,59.40475139137878],[24.791427454784206,59.403481448275954],[24.789979602428964,59.4026135720213],[24.78961347422573,59.40202593668036],[24.79022220347482,59.40050238304254],[24.79189043197538,59.398936792481784],[24.792554940625713,59.39806660920518],[24.792639408120014,59.397311349660704],[24.79241966234153,59.39511973523845],[24.793441602986316,59.394340993098815],[24.795757198023644,59.393074530098204],[24.7915683625103,59.39106287005845],[24.792008759480357,59.39070958472217],[24.791299973979395,59.3905415072304],[24.79108467541893,59.389544389365305],[24.789222474865113,59.386723769708766],[24.786967276726784,59.38452948392616],[24.787744439818262,59.3827404602427],[24.781536344440532,59.3798312970988],[24.78110415467889,59.3767153021431],[24.771690639905152,59.37411886396401],[24.76989726456698,59.37528528428625],[24.769170372306622,59.37636521294953],[24.762006074692426,59.37575916028841],[24.76054055629314,59.37492672316283],[24.74880484250926,59.376404063983934],[24.748180192772633,59.37673151044528],[24.739909340161702,59.38472250380975],[24.738588585862804,59.38559759292388],[24.73336232761987,59.390418294939735],[24.731218064720753,59.3938028150734],[24.728787548279495,59.394300649793415],[24.7274018076822,59.39256111960066],[24.72548770099932,59.39378255168547],[24.72534687096661,59.39414732889955],[24.728763521967885,59.400967181922624],[24.730150947131897,59.40290279880783],[24.726519128417554,59.402434108247775],[24.73031416628694,59.406452739989156],[24.730204045073638,59.406481579929995],[24.73117060193736,59.407664779104024],[24.731538617151013,59.40783953295216],[24.73299948893592,59.409510252829136],[24.732813882044763,59.40955288643889],[24.73421507252587,59.41155969471021],[24.734282530876808,59.41252948493747],[24.733987085813542,59.41410895387306],[24.730836191986132,59.42092506880353],[24.729674601589608,59.423050122292075],[24.72867803766044,59.4244432856238],[24.728585532756448,59.42502767743866],[24.725330335930455,59.428676696009965],[24.724037397501654,59.43041167653053],[24.7234316082876,59.43155007613305],[24.72329380168733,59.43247939142231],[24.723703144908907,59.43431940092845],[24.726305762744015,59.43478346343969],[24.72978597856421,59.43509404450027],[24.732583497225985,59.4349834250756],[24.73233671328714,59.436124324815374],[24.73249029877908,59.436485979799805],[24.73279012146723,59.43659425293352],[24.73412384252731,59.438124515527164],[24.734733898232882,59.43855196423786],[24.73616677684289,59.43926155087719],[24.738783742099155,59.440093740448106],[24.744236924536477,59.44229751760653],[24.744475743726923,59.442413537377654],[24.74522465320388,59.44358002669228],[24.745517578656095,59.443768537356654],[24.746806397676846,59.44414008793912],[24.753155629670673,59.44352897003111],[24.753013086530075,59.443944293419136],[24.75325512024006,59.444601071773484],[24.754335394298828,59.4446394787023],[24.754220543503422,59.445467673897944],[24.755,59.445],[24.76381437696116,59.44605772523534]]]}},{"type":"Feature","id":"d-pohja","properties":{"id":"d-pohja","name":"P\u00f5hja-Tallinn","color":"#0B6E4F","kind":"free","summary":"Enamik t\u00e4navaid tasuta v\u00e4ljaspool tsooni","layerRole":"district","labelRank":20,"fillSort":10,"labelLng":24.714965756787826,"labelLat":59.4438564153879},"geometry":{"type":"MultiPolygon","coordinates":[[[[24.751941534948482,59.45079499407182],[24.75137082370858,59.45111470261189],[24.750976746857276,59.45124026155275],[24.752070184328304,59.450898258059624],[24.751941534948482,59.45079499407182]]],[[[24.658060583334073,59.45573954861978],[24.658820226750244,59.45548318918371],[24.659638268314637,59.4550779664185],[24.658060583334073,59.45573954861978]]],[[[24.680467599759112,59.43730736057252],[24.680956609525822,59.437842649354465],[24.68123189046126,59.4387757179177],[24.682415249458728,59.440484064624556],[24.682761098771795,59.4414420204818],[24.683910278771858,59.44318321503658],[24.68409311766493,59.443718594591964],[24.684325842033434,59.44572453468207],[24.683603060273672,59.44836030602737],[24.7,59.45],[24.715,59.455],[24.7165337038947,59.4580674077894],[24.71682589698774,59.45794372860009],[24.71750952935531,59.45847522367619],[24.717651565940308,59.4581059285552],[24.717364508344176,59.4578813698932],[24.71779246429304,59.457739592838095],[24.72,59.452],[24.74,59.45],[24.743394346489303,59.45045257953191],[24.744084712906332,59.44937174761655],[24.744987594402122,59.448628257256516],[24.747453138880513,59.44796504425819],[24.74916363810077,59.44786618514761],[24.74953446050049,59.44814487143868],[24.749069162722037,59.44768249681866],[24.74914594141655,59.44759143346715],[24.74951350004381,59.44745563003628],[24.75005760012591,59.44791904010803],[24.749697970818513,59.44748577988829],[24.750667372638784,59.44725443401801],[24.7473349119442,59.446162086848716],[24.74830275069674,59.44572722775619],[24.748899142828872,59.445783265278806],[24.74864595987289,59.446344810022495],[24.750859288071823,59.446826947273514],[24.75090152337707,59.4470228174805],[24.751400351643653,59.44715978901381],[24.754220543504534,59.44546767389728],[24.75433539740764,59.44463945983329],[24.75325512024006,59.444601071773484],[24.753013086530075,59.443944293419136],[24.753155629670673,59.44352897003111],[24.746806397676846,59.44414008793912],[24.745517578656095,59.443768537356654],[24.74522465320388,59.44358002669228],[24.744475743726923,59.442413537377654],[24.744236924536477,59.44229751760653],[24.738783742099155,59.440093740448106],[24.73616677684289,59.43926155087719],[24.734733898232882,59.43855196423786],[24.73412384252731,59.438124515527164],[24.73279012146723,59.43659425293352],[24.73249029877908,59.436485979799805],[24.73233671328714,59.436124324815374],[24.732583497225985,59.4349834250756],[24.72978597856421,59.43509404450027],[24.726305762744015,59.43478346343969],[24.71793406955205,59.43333477101487],[24.716445970154187,59.432882312007706],[24.715147119385286,59.43269177662239],[24.709647389622457,59.43088967858113],[24.704288944928866,59.42940601976581],[24.70164555086442,59.42933545036106],[24.693099595613795,59.429958651022446],[24.688462773476807,59.42994732362529],[24.68793392489604,59.430330424356306],[24.68266978477936,59.435704797918085],[24.67957263768532,59.43674445270156],[24.680467599759112,59.43730736057252]]],[[[24.677185997105248,59.45024222635997],[24.675992736414337,59.45010127347751],[24.67368259197287,59.45013984923711],[24.67290247168009,59.450530111393505],[24.673772088159662,59.45097879590319],[24.67349481165204,59.451122838263835],[24.67260777795554,59.45067869778216],[24.67119845890129,59.45142129268783],[24.671761919391233,59.45173338225037],[24.67122717589861,59.45199164317426],[24.67084064188814,59.45177373288148],[24.66994823987805,59.452096207718895],[24.669372366729103,59.45159697838754],[24.670036657814446,59.45005890475206],[24.669612686125408,59.45001351843418],[24.669186084665366,59.450727322854966],[24.669190298572374,59.45109128978571],[24.668825507058564,59.45168443876091],[24.668758520610904,59.452137908567394],[24.6683672000032,59.4525692521674],[24.668518349879843,59.4528373910228],[24.669204822199593,59.453172638096696],[24.669348480167955,59.453504698019024],[24.668628995630314,59.45416650252581],[24.66765274778216,59.45468252311942],[24.667458395759144,59.45459288166902],[24.665558804819828,59.45579845351416],[24.661658498896962,59.454216549809026],[24.661588855076683,59.45408616140449],[24.6630336721182,59.45275071187718],[24.66276085098262,59.452676315649505],[24.661398878749942,59.45407077331965],[24.660248255100463,59.454629211423274],[24.660369067748395,59.45468951854271],[24.661212525032326,59.45424255975774],[24.66160161759771,59.45459419535048],[24.664818673046227,59.45585567376083],[24.664856585800536,59.45615410121563],[24.664274310418598,59.45667553536363],[24.66447398162498,59.45673841240556],[24.663164573151846,59.45768840601705],[24.66006699909689,59.45657485549752],[24.659911375629335,59.4566766595481],[24.66302175124796,59.45784809058462],[24.66187932994981,59.458684320757875],[24.660872403519065,59.459135073736356],[24.66050575190982,59.45873875420127],[24.660058006030546,59.45882716601173],[24.660314436302357,59.459108157548684],[24.660651375869712,59.45902475737391],[24.66079118029258,59.45916073673771],[24.659800406426825,59.45939152217439],[24.659209888804824,59.45903940486453],[24.6598111132497,59.45949249386599],[24.652510309155197,59.46171128398365],[24.65028355959555,59.45988750172077],[24.656458940702617,59.456676078208986],[24.656367422227614,59.456621564133215],[24.650677855386846,59.459595851356134],[24.650282662427383,59.45953391856306],[24.649760897037726,59.45972219995871],[24.64966472660876,59.45988312514481],[24.649929855038742,59.460318601990785],[24.65059926633022,59.4606792854921],[24.652060241552523,59.461986872763156],[24.649486784111033,59.462803322962685],[24.651692881780317,59.464607906340085],[24.651586676384053,59.46485505006625],[24.64771859428854,59.46606858499586],[24.647536412279536,59.46600559765341],[24.647318376679543,59.46251240356347],[24.647621872900633,59.4620473865955],[24.647815427782287,59.462095462582155],[24.647661831543985,59.4619996493993],[24.648023829921634,59.461541772838395],[24.647326701197144,59.46156599786731],[24.64663531554335,59.46250981452924],[24.64679085311572,59.46532734191903],[24.647020999355973,59.4663810285285],[24.64599440239112,59.46889979145486],[24.64599528828116,59.46940936661688],[24.64697082685406,59.46989484744029],[24.64751329501787,59.469865442592415],[24.64750941104999,59.470122478922775],[24.64770508818408,59.46981844433046],[24.648174333968694,59.46962300283288],[24.64862698436547,59.46916913740977],[24.65020910819462,59.468238750403906],[24.6527273830094,59.4674166206252],[24.65812449394828,59.46692922813339],[24.660038106011093,59.46700731233198],[24.661538665499208,59.4668601379228],[24.662068041097918,59.466309271449326],[24.662005291680526,59.46548207473232],[24.66214130429257,59.465270427523116],[24.664184387130376,59.464955586848234],[24.666332433552785,59.463997300658356],[24.665,59.46],[24.677185997105248,59.45024222635997]]],[[[24.686367997401923,59.47911466639918],[24.686048037651908,59.47946843183359],[24.685735090550313,59.48031688399795],[24.685487425116236,59.48049050822146],[24.68550064106789,59.48100298996063],[24.684939005054623,59.482121635500235],[24.68511767923135,59.48229304351014],[24.685483016764504,59.483469268856396],[24.685898209988153,59.48407325632543],[24.68673463299755,59.48485332802614],[24.687745535334262,59.48544826350556],[24.688798503711073,59.48566561578724],[24.689455455541143,59.48550916053122],[24.691189122440594,59.48414665434718],[24.691228656122515,59.483647266550754],[24.692109554243903,59.48186283017628],[24.694282267163928,59.48085007485863],[24.69741824163914,59.4809642632089],[24.698669978406244,59.48119385576184],[24.6992780157267,59.48150707815071],[24.700821482606734,59.48143499998153],[24.700792272665282,59.48129253185405],[24.701671852887785,59.480607422458625],[24.70217983109201,59.48031501440145],[24.702400519275642,59.48039555003093],[24.703053628452505,59.47977700642939],[24.70362424083506,59.47969076577194],[24.70389123354218,59.480034013604275],[24.704856075374067,59.480229422975306],[24.70483870205912,59.48037808187571],[24.705250895764948,59.48039816302466],[24.70556374036862,59.48069807822785],[24.706305788834133,59.48085158509491],[24.706779475239443,59.48130217301235],[24.70710289629503,59.481970471604406],[24.707031372354326,59.482183304731215],[24.707611912444243,59.483419231083644],[24.70739788532889,59.48394333127168],[24.707513925322747,59.48446863169677],[24.707295904048188,59.485223029684846],[24.706803640767497,59.48571147902766],[24.706844506685783,59.48613318635356],[24.706445221899372,59.48645771378349],[24.708101719314026,59.48576988439199],[24.708963697162908,59.48452027099538],[24.710050988723097,59.48343434664203],[24.710209099237556,59.48303236684629],[24.709981480621952,59.482339789985346],[24.712105904413615,59.48085604354229],[24.712334619263853,59.480480421409226],[24.712277369624164,59.47955664871251],[24.712708682092103,59.47881445780801],[24.712729510251172,59.478133911756224],[24.71294298032834,59.47772865697833],[24.713339804245404,59.47743383461893],[24.71575772237916,59.47673881009028],[24.72022267093041,59.47591371920346],[24.72156930572053,59.47524672000957],[24.72267072421244,59.47430917322707],[24.725331481154978,59.473519040924984],[24.727232394912928,59.473154929941956],[24.72704155360466,59.47302770240311],[24.724088991265457,59.473032629727456],[24.723503274412426,59.47294967631034],[24.72261939211974,59.47188484255067],[24.720841202472062,59.4709125514799],[24.719739513777693,59.47003459798836],[24.71925218984844,59.46907602943426],[24.718506150688942,59.46830755046912],[24.71789410284271,59.467105897157296],[24.71,59.475],[24.69,59.48],[24.686367997401923,59.47911466639918]]],[[[24.72529472392117,59.47275115181171],[24.724825908594944,59.47294835293622],[24.72489685875724,59.47298956143057],[24.72529472392117,59.47275115181171]]]]}},{"type":"Feature","id":"d-lasnamae","properties":{"id":"d-lasnamae","name":"Lasnam\u00e4e","color":"#0369A1","kind":"free","summary":"Laialdane tasuta t\u00e4navaparkimine","layerRole":"district","labelRank":90,"fillSort":10,"labelLng":24.85960009751915,"labelLat":59.434806752722814},"geometry":{"type":"Polygon","coordinates":[[[24.81719478584697,59.45407902691271],[24.823279981459898,59.453261145582715],[24.82765024490215,59.45297376394813],[24.83292233158706,59.453053451164166],[24.839763069360075,59.45224785457231],[24.841295925325834,59.45240150247566],[24.847373569054106,59.45143100771234],[24.849954005449405,59.45146787032575],[24.851394955256065,59.451679937060184],[24.852905673104498,59.45211439372316],[24.8547513129239,59.45310380292516],[24.861747697228616,59.45478462716513],[24.869791001817795,59.45514628676188],[24.876382106980564,59.454863407909045],[24.88479513524895,59.45495723432724],[24.893309767620206,59.454470401805246],[24.894492245151998,59.45460352281967],[24.898574887405253,59.455820778946],[24.90021706726883,59.45689414961436],[24.901141728697517,59.458312639402145],[24.902141256850488,59.45924774925123],[24.90386011599509,59.460119976531075],[24.905480127766097,59.46056348597583],[24.905577773688055,59.45885274448156],[24.904429930193203,59.457279815796305],[24.90520677010623,59.45674853365936],[24.90710668881833,59.457187128005835],[24.908896593020806,59.456999476711694],[24.90925568424894,59.4567845396501],[24.909291273556764,59.45658669239873],[24.90896148377261,59.45472289221081],[24.9095228855976,59.454325298908],[24.91116683649073,59.4537047901278],[24.911495518077317,59.453227082272846],[24.911395396038458,59.45231850757562],[24.911027841502506,59.45188573016299],[24.9104268659092,59.4515630236304],[24.9101144734204,59.451009518333834],[24.91061032267343,59.4500165933072],[24.911743147582378,59.44883948543392],[24.911742780245778,59.448497769281616],[24.91116621356483,59.44755683121327],[24.91108215881969,59.446921518214786],[24.91179680126246,59.4465867397559],[24.914734680680883,59.4458175585238],[24.915157149942267,59.445251529609834],[24.91525032121631,59.444591214540196],[24.91542827561945,59.444373060833435],[24.91709025545302,59.44303324810086],[24.917375355975086,59.44267765613354],[24.916994976115337,59.44122279469475],[24.917107079973412,59.439748159068714],[24.917367580644072,59.43945514010691],[24.919356329482042,59.43888857482967],[24.91949760441591,59.43926050969969],[24.919791573408283,59.43945308874693],[24.92036852085532,59.43953820188205],[24.922083492589337,59.43909682558341],[24.92311300818336,59.43822639599055],[24.923671400367578,59.43687045252316],[24.924876082642967,59.43590220492944],[24.926282751022825,59.435501566188606],[24.92194921797719,59.432175680477506],[24.904437910217844,59.428823472696536],[24.88845945352745,59.426985959815596],[24.869885701407718,59.4226631995249],[24.86878661511574,59.421404610823615],[24.869695562208843,59.418398901598316],[24.87075197618514,59.41832804624362],[24.870575727105507,59.415986183642836],[24.870432613714215,59.415975243789354],[24.87092290070848,59.414395628517674],[24.870182673404212,59.41073668338974],[24.839783564991922,59.41012449058158],[24.824789955114724,59.41199329587865],[24.820379415573797,59.41026325030447],[24.819052932672435,59.40951676369698],[24.815692535054136,59.411223941569304],[24.814392003913518,59.41168662999657],[24.81381583801446,59.41209282709826],[24.808315431733735,59.41207175972772],[24.801510045147996,59.412331790895074],[24.79577496483041,59.417256107271655],[24.79229417362251,59.419762715214645],[24.79246046131439,59.42014502885246],[24.790700994300742,59.42096086959956],[24.78695852271167,59.423531300306216],[24.78717649092101,59.423880625019876],[24.787000785422293,59.42448041807966],[24.785129984635944,59.42465353233279],[24.780895092705464,59.426255063547224],[24.779279793231932,59.42715309043748],[24.78030289801253,59.427136629379575],[24.78092987357214,59.427394397349275],[24.784638874675696,59.43018627702366],[24.79029226769394,59.43341953829224],[24.793814267277202,59.43450371944639],[24.793831264519714,59.43510978599924],[24.79623178021779,59.43536717638988],[24.798273950922184,59.43539046860972],[24.798554809616583,59.436550591210526],[24.8069264716149,59.440408459598665],[24.812189296381558,59.44312764215305],[24.812797427446576,59.44404205896902],[24.813647288190918,59.444570180685936],[24.814533125795183,59.44489304715766],[24.814581911945407,59.44510371546561],[24.81184765732824,59.44556928099557],[24.812448084463878,59.44615837611913],[24.8128784175104,59.44695503200649],[24.813348379882903,59.450272683974845],[24.813010555374415,59.451770873786],[24.81330910903879,59.45229942799704],[24.81560116764901,59.45370113385046],[24.81719478584697,59.45407902691271]]]}},{"type":"Feature","id":"d-vanalinn","properties":{"id":"d-vanalinn","name":"Vanalinn","color":"#B45309","kind":"paid","summary":"Vanalinna tasuline tsoon \u00b7 k\u00f5rgeim tariif","layerRole":"subzone","labelRank":5,"fillSort":50,"labelLng":24.743739281881506,"labelLat":59.43767054233592},"geometry":{"type":"Polygon","coordinates":[[[24.753154265815542,59.443528990397716],[24.746805115647536,59.44414046594908],[24.74551870348135,59.44376911358214],[24.745224079311846,59.44357957571483],[24.744476150348028,59.44241359342818],[24.738783358681797,59.44009418515401],[24.7361666471554,59.43926223922303],[24.734732613301404,59.43855228559409],[24.73412277883741,59.43812381408722],[24.73279073343704,59.43659378094016],[24.732489174737804,59.43648558299514],[24.732470444209124,59.436228412715316],[24.732338163751326,59.436124658763745],[24.732669707710926,59.435042638319445],[24.73502762764598,59.432205510558255],[24.73889281485143,59.43100300403227],[24.740366272843378,59.43181316706173],[24.74332583354963,59.43262591077009],[24.746168163409088,59.43279954746945],[24.74624496516445,59.433364758963165],[24.746468538769772,59.43369903397737],[24.74682321052806,59.434032918761],[24.747833753161895,59.43459597344626],[24.75272437048283,59.4361848191845],[24.75230620607842,59.43649575976401],[24.752652604314196,59.436794307621184],[24.752837907595314,59.4373299608083],[24.75354241745876,59.43738162867098],[24.75397193966941,59.43797828027766],[24.754185121136686,59.43795945600087],[24.754243123050934,59.438879510077385],[24.75397082959772,59.44129691221101],[24.753622610315887,59.44143437946958],[24.75307696997126,59.44238080326883],[24.753360074992642,59.44337370797274],[24.753154265815542,59.443528990397716]]]}},{"type":"Feature","id":"d-sudalinn","properties":{"id":"d-sudalinn","name":"S\u00fcdalinn","color":"#D97706","kind":"paid","summary":"S\u00fcdalinna tasuline tsoon \u00b7 k\u00f5rgem tariif","layerRole":"subzone","labelRank":8,"fillSort":50,"labelLng":24.75267605161443,"labelLat":59.43431444610363},"geometry":{"type":"Polygon","coordinates":[[[24.746168163409088,59.43279954746945],[24.748467176247345,59.43267726676511],[24.75032736311853,59.43141604286592],[24.75583664418169,59.433645293579474],[24.75810079885838,59.433719957003845],[24.75762841773371,59.437358653804836],[24.754532537383756,59.43724900365474],[24.75354241745876,59.43738162867098],[24.752837907595314,59.4373299608083],[24.752652604314196,59.436794307621184],[24.75230620607842,59.43649575976401],[24.75272437048283,59.4361848191845],[24.747833753161895,59.43459597344626],[24.74682321052806,59.434032918761],[24.746468538769772,59.43369903397737],[24.74624496516445,59.433364758963165],[24.746168163409088,59.43279954746945]]]}}],"properties":{"source":"Tallinn GIS Linnaosad + Asumipiirid; coastal water clipped","crs":"EPSG:4326"}}